[{"OBJECT_NAME":"STARLINK-2100","OBJECT_ID":"2021-005AH","EPOCH":"2026-03-09T22:00:01.999584","MEAN_MOTION":15.12103699,"ECCENTRICITY":0.00010124,"INCLINATION":53.0532,"RA_OF_ASC_NODE":30.5302,"ARG_OF_PERICENTER":95.6888,"MEAN_ANOMALY":202.9615,"EPHEMERIS_TYPE":0,"CLASSIFICATION_TYPE":"U","NORAD_CAT_ID":47380,"ELEMENT_SET_NO":999,"REV_AT_EPOCH":577,"BSTAR":0.078295115,"MEAN_MOTION_DOT":0.014974,"MEAN_MOTION_DDOT":0},{"OBJECT_NAME":"LEMUR-2-DEVERILL-M-T","OBJECT_ID":"2023-100F","EPOCH":"2026-03-09T12:28:46.594272","MEAN_MOTION":15.34744564,"ECCENTRICITY":0.00079755,"INCLINATION":99.4583,"RA_OF_ASC_NODE":78.9092,"ARG_OF_PERICENTER":29.3685,"MEAN_ANOMALY":330.7998,"EPHEMERIS_TYPE":0,"CLASSIFICATION_TYPE":"U","NORAD_CAT_ID":57391,"ELEMENT_SET_NO":999,"REV_AT_EPOCH":14593,"BSTAR":0.0008498245,"MEAN_MOTION_DOT":0.0002862,"MEAN_MOTION_DDOT":0}]
